[{"OBJECT_NAME":"KORSAT-7","OBJECT_ID":"2023-185B","EPOCH":"2026-03-09T23:44:55.136256","MEAN_MOTION":15.00898391,"ECCENTRICITY":0.00224341,"INCLINATION":97.6243,"RA_OF_ASC_NODE":135.089,"ARG_OF_PERICENTER":307.6562,"MEAN_ANOMALY":52.2627,"EPHEMERIS_TYPE":0,"CLASSIFICATION_TYPE":"U","NORAD_CAT_ID":58463,"ELEMENT_SET_NO":999,"REV_AT_EPOCH":12440,"BSTAR":0.00023536002,"MEAN_MOTION_DOT":2.951e-5,"MEAN_MOTION_DDOT":0},{"OBJECT_NAME":"STARLINK-35000","OBJECT_ID":"2025-184F","EPOCH":"2026-03-09T15:57:10.240704","MEAN_MOTION":15.05651833,"ECCENTRICITY":0.00014184,"INCLINATION":97.6025,"RA_OF_ASC_NODE":122.5825,"ARG_OF_PERICENTER":119.6372,"MEAN_ANOMALY":240.4997,"EPHEMERIS_TYPE":0,"CLASSIFICATION_TYPE":"U","NORAD_CAT_ID":65278,"ELEMENT_SET_NO":999,"REV_AT_EPOCH":3129,"BSTAR":0.00025453426,"MEAN_MOTION_DOT":3.614e-5,"MEAN_MOTION_DDOT":0}]
